NORAD_CAT_ID,OBJECT_NAME,OBJECT_TYPE,EPOCH,MEAN_MOTION,ECCENTRICITY,INCLINATION,RA_OF_ASC_NODE,ARG_OF_PERICENTER,MEAN_ANOMALY,BSTAR,MEAN_MOTION_DOT,MEAN_MOTION_DDOT,TLE_LINE0,TLE_LINE1,TLE_LINE2,SEMIMAJOR_AXIS,PERIOD,APOGEE,PERIGEE,DECAYED
53891.0,STARLINK-5041,PAYLOAD,2024-07-29 08:18:14,15.08833995,9.08e-05,53.2168,85.3716,83.4092,276.7003,-0.00019652,-3.413e-05,0.0,0 STARLINK-5041,1 53891U 22119F   24211.34600342 -.00003413  00000-0 -19652-3 0  9992,2 53891  53.2168  85.3716 0000908  83.4092 276.7003 15.08833995102443,6917.899,95.438,540.392,539.136,0.0
53891.0,STARLINK-5041,PAYLOAD,2024-07-29 21:01:19,15.08842064,0.0001365,53.2153,82.985,35.7541,324.3542,-0.00011065,-2.049e-05,0.0,0 STARLINK-5041,1 53891U 22119F   24211.87591676 -.00002049  00000-0 -11065-3 0  9993,2 53891  53.2153  82.9850 0001365  35.7541 324.3542 15.08842064102520,6917.874,95.437,540.683,538.795,0.0
53891.0,STARLINK-5041,PAYLOAD,2024-07-29 22:36:41,15.08851192,9.63e-05,53.2166,82.6956,70.7346,289.375,-2.5094e-05,-6.87e-06,0.0,0 STARLINK-5041,1 53891U 22119F   24211.94214995 -.00000687  00000-0 -25094-4 0  9991,2 53891  53.2166  82.6956 0000963  70.7346 289.3750 15.08851192102953,6917.846,95.437,540.377,539.045,0.0
53891.0,STARLINK-5041,PAYLOAD,2024-07-30 08:09:01,15.08842689,0.0001058,53.217,80.9145,98.53,261.5812,-4.6829e-05,-1.033e-05,0.0,0 STARLINK-5041,1 53891U 22119F   24212.33959495 -.00001033  00000-0 -46829-4 0  9991,2 53891  53.2170  80.9145 0001058  98.5300 261.5812 15.08842689102595,6917.872,95.437,540.469,539.005,0.0
53891.0,STARLINK-5041,PAYLOAD,2024-07-30 22:27:30,15.08829409,0.0001054,53.2163,78.2369,73.2843,286.8265,0.00032876,4.947e-05,0.0,0 STARLINK-5041,1 53891U 22119F   24212.93576451  .00004947  00000-0  32876-3 0  9995,2 53891  53.2163  78.2369 0001054  73.2843 286.8265 15.08829409103108,6917.913,95.438,540.507,539.049,0.0
53891.0,STARLINK-5041,PAYLOAD,2024-07-31 07:59:49,15.08833206,9.25e-05,53.2164,76.4519,77.5987,282.5108,0.00020216,2.931e-05,0.0,0 STARLINK-5041,1 53891U 22119F   24213.33320686  .00002931  00000-0  20216-3 0  9993,2 53891  53.2164  76.4519 0000925  77.5987 282.5108 15.08833206103163,6917.901,95.438,540.406,539.126,0.0
53891.0,STARLINK-5041,PAYLOAD,2024-07-31 22:18:17,15.08841046,0.0001116,53.2167,73.774,74.6264,285.4852,1.0579e-05,-1.19e-06,0.0,0 STARLINK-5041,1 53891U 22119F   24213.92936932 -.00000119  00000-0  10579-4 0  9994,2 53891  53.2167  73.7740 0001116  74.6264 285.4852 15.08841046103250,6917.877,95.437,540.514,538.97,0.0
53891.0,STARLINK-5041,PAYLOAD,2024-08-01 20:33:40,15.08863039,9.64e-05,53.215,69.6149,100.4405,259.6696,6.574e-05,7.59e-06,0.0,0 STARLINK-5041,1 53891U 22119F   24214.85671300  .00000759  00000-0  65740-4 0  9991,2 53891  53.2150  69.6149 0000964 100.4405 259.6696 15.08863039102977,6917.81,95.436,540.342,539.008,0.0
53891.0,STARLINK-5041,PAYLOAD,2024-08-01 22:09:03,15.088625,0.000115,53.2162,69.3142,92.3391,267.7733,0.00045423,6.953e-05,0.0,0 STARLINK-5041,1 53891U 22119F   24214.92295381  .00006953  00000-0  45423-3 0  9997,2 53891  53.2162  69.3142 0001150  92.3391 267.7733 15.08862500103404,6917.812,95.436,540.472,538.881,0.0
53891.0,STARLINK-5041,PAYLOAD,2024-08-02 07:41:22,15.08844835,0.0001354,53.2171,67.5292,84.9279,275.1868,0.00016342,2.314e-05,0.0,0 STARLINK-5041,1 53891U 22119F   24215.32040322  .00002314  00000-0  16342-3 0  9990,2 53891  53.2171  67.5292 0001354  84.9279 275.1868 15.08844835103041,6917.866,95.437,540.667,538.794,0.0
53891.0,STARLINK-5041,PAYLOAD,2024-08-02 20:24:28,15.0883574,0.000148,53.2178,65.1455,109.792,250.3232,-3.0566e-05,-7.74e-06,0.0,0 STARLINK-5041,1 53891U 22119F   24215.85032654 -.00000774  00000-0 -30566-4 0  9992,2 53891  53.2178  65.1455 0001480 109.7920 250.3232 15.08835740103126,6917.893,95.438,540.782,538.735,0.0
53891.0,STARLINK-5041,PAYLOAD,2024-08-03 13:53:42,15.08849484,0.0001315,53.2174,61.8772,102.6507,257.4632,-5.9003e-05,-1.227e-05,0.0,0 STARLINK-5041,1 53891U 22119F   24216.57896202 -.00001227  00000-0 -59003-4 0  9990,2 53891  53.2174  61.8772 0001315 102.6507 257.4632 15.08849484103657,6917.851,95.437,540.626,538.807,0.0
53891.0,STARLINK-5041,PAYLOAD,2024-08-03 20:15:14,15.08855753,0.0001288,53.2163,60.69,96.1787,263.9352,0.0003207,4.822e-05,0.0,0 STARLINK-5041,1 53891U 22119F   24216.84392006  .00004822  00000-0  32070-3 0  9999,2 53891  53.2163  60.6900 0001288  96.1787 263.9352 15.08855753103276,6917.832,95.437,540.588,538.806,0.0
53891.0,STARLINK-5041,PAYLOAD,2024-08-04 13:44:29,15.08846962,0.0001127,53.2155,57.4186,88.4148,271.6973,0.00037636,5.708e-05,0.0,0 STARLINK-5041,1 53891U 22119F   24217.57256569  .00005708  00000-0  37636-3 0  9990,2 53891  53.2155  57.4186 0001127  88.4148 271.6973 15.08846962103800,6917.859,95.437,540.504,538.944,0.0
53891.0,STARLINK-5041,PAYLOAD,2024-08-04 20:06:01,15.08870626,0.0001228,53.2164,56.2296,99.8091,260.304,0.0014107,0.00022253,0.0,0 STARLINK-5041,1 53891U 22119F   24217.83752080  .00022253  00000-0  14107-2 0  9999,2 53891  53.2164  56.2296 0001228  99.8091 260.3040 15.08870626103426,6917.787,95.436,540.501,538.802,0.0
53891.0,STARLINK-5041,PAYLOAD,2024-08-05 19:56:49,15.08846248,0.0001268,53.2161,51.7689,94.8349,265.2788,0.00085292,0.00013315,0.0,0 STARLINK-5041,1 53891U 22119F   24218.83112615  .00013315  00000-0  85292-3 0  9997,2 53891  53.2161  51.7689 0001268  94.8349 265.2788 15.08846248103576,6917.861,95.437,540.603,538.849,0.0
53891.0,STARLINK-5041,PAYLOAD,2024-08-06 05:29:08,15.08841649,0.0001167,53.2156,49.9841,82.53,277.5825,0.00045588,6.975e-05,0.0,0 STARLINK-5041,1 53891U 22119F   24219.22856650  .00006975  00000-0  45588-3 0  9993,2 53891  53.2156  49.9841 0001167  82.5300 277.5825 15.08841649103633,6917.875,95.437,540.548,538.933,0.0
53891.0,STARLINK-5041,PAYLOAD,2024-08-06 19:47:36,15.08839745,0.0001327,53.2167,47.3123,104.6538,255.4601,0.00014424,2.008e-05,0.0,0 STARLINK-5041,1 53891U 22119F   24219.82472815  .00002008  00000-0  14424-3 0  9994,2 53891  53.2167  47.3123 0001327 104.6538 255.4601 15.08839745104145,6917.881,95.438,540.664,538.828,0.0
53891.0,STARLINK-5041,PAYLOAD,2024-08-07 19:38:23,15.08854702,0.0001194,53.2163,42.8509,95.0858,265.0271,0.00040655,6.191e-05,0.0,0 STARLINK-5041,1 53891U 22119F   24220.81832299  .00006191  00000-0  40655-3 0  9993,2 53891  53.2163  42.8509 0001194  95.0858 265.0271 15.08854702104295,6917.835,95.437,540.526,538.874,0.0
53891.0,STARLINK-5041,PAYLOAD,2024-08-08 11:32:14,15.08844051,0.0001523,53.216,39.878,75.2389,284.8772,0.00019459,2.811e-05,0.0,0 STARLINK-5041,1 53891U 22119F   24221.48072839  .00002811  00000-0  19459-3 0  9996,2 53891  53.2160  39.8780 0001523  75.2389 284.8772 15.08844051104396,6917.868,95.437,540.787,538.679,0.0
53891.0,STARLINK-5041,PAYLOAD,2024-08-08 21:04:33,15.08847332,0.0001436,53.2164,38.0916,79.4931,280.6223,0.00025674,3.801e-05,0.0,0 STARLINK-5041,1 53891U 22119F   24221.87816712  .00003801  00000-0  25674-3 0  9991,2 53891  53.2164  38.0916 0001436  79.4931 280.6223 15.08847332104035,6917.858,95.437,540.716,538.73,0.0
53891.0,STARLINK-5041,PAYLOAD,2024-08-09 11:23:02,15.08836002,0.0001457,53.2151,35.4147,93.9271,266.1887,0.00019129,2.757e-05,0.0,0 STARLINK-5041,1 53891U 22119F   24222.47432958  .00002757  00000-0  19129-3 0  9991,2 53891  53.2151  35.4147 0001457  93.9271 266.1887 15.08836002104126,6917.893,95.438,540.766,538.75,0.0
53891.0,STARLINK-5041,PAYLOAD,2024-08-09 20:55:20,15.08854631,0.0001248,53.2167,33.6273,95.3577,264.7558,0.00055865,8.618e-05,0.0,0 STARLINK-5041,1 53891U 22119F   24222.87176495  .00008618  00000-0  55865-3 0  9995,2 53891  53.2167  33.6273 0001248  95.3577 264.7558 15.08854631104189,6917.836,95.437,540.564,538.837,0.0
53891.0,STARLINK-5041,PAYLOAD,2024-08-10 11:13:48,15.08846554,0.0001293,53.2172,30.9514,90.892,269.222,0.00025281,3.739e-05,0.0,0 STARLINK-5041,1 53891U 22119F   24223.46792783  .00003739  00000-0  25281-3 0  9993,2 53891  53.2172  30.9514 0001293  90.8920 269.2220 15.08846554104276,6917.86,95.437,540.62,538.831,0.0
53891.0,STARLINK-5041,PAYLOAD,2024-08-10 20:46:07,15.08871954,0.0001785,53.2171,29.1681,100.9594,259.1599,0.00096182,0.00015066,0.0,0 STARLINK-5041,1 53891U 22119F   24223.86535927  .00015066  00000-0  96182-3 0  9996,2 53891  53.2171  29.1681 0001785 100.9594 259.1599 15.08871954104758,6917.783,95.436,540.883,538.413,0.0
53891.0,STARLINK-5041,PAYLOAD,2024-08-11 04:43:02,15.08848633,0.0001312,53.2172,27.6817,88.2339,271.8803,5.6256e-05,6.08e-06,0.0,0 STARLINK-5041,1 53891U 22119F   24224.19656168  .00000608  00000-0  56256-4 0  9999,2 53891  53.2172  27.6817 0001312  88.2339 271.8803 15.08848633104380,6917.854,95.437,540.627,538.811,0.0
53891.0,STARLINK-5041,PAYLOAD,2024-08-11 20:36:54,15.08838727,0.0002081,53.2186,24.7078,97.2592,262.8637,0.00036613,5.543e-05,0.0,0 STARLINK-5041,1 53891U 22119F   24224.85896821  .00005543  00000-0  36613-3 0  9991,2 53891  53.2186  24.7078 0002081  97.2592 262.8637 15.08838727104486,6917.884,95.438,541.189,538.31,0.0
53891.0,STARLINK-5041,PAYLOAD,2024-08-12 10:55:23,15.08832641,0.0002122,53.2184,22.0303,97.609,262.5144,0.00013893,1.923e-05,0.0,0 STARLINK-5041,1 53891U 22119F   24225.45513329  .00001923  00000-0  13893-3 0  9990,2 53891  53.2184  22.0303 0002122  97.6090 262.5144 15.08832641104578,6917.903,95.438,541.236,538.3,0.0
53891.0,STARLINK-5041,PAYLOAD,2024-08-12 17:16:55,15.08864737,7.53e-05,53.2181,20.8398,100.6476,259.4601,0.00080651,0.0001258,0.0,0 STARLINK-5041,1 53891U 22119F   24225.72008373  .00012580  00000-0  80651-3 0  9995,2 53891  53.2181  20.8398 0000753 100.6476 259.4601 15.08864737104615,6917.805,95.436,540.191,539.149,0.0
53891.0,STARLINK-5041,PAYLOAD,2024-08-12 20:27:41,15.08872741,0.0001413,53.2185,20.2455,99.9521,260.1631,0.0010044,0.00015747,0.0,0 STARLINK-5041,1 53891U 22119F   24225.85256141  .00015747  00000-0  10044-2 0  9993,2 53891  53.2185  20.2455 0001413  99.9521 260.1631 15.08872741105057,6917.78,95.435,540.623,538.668,0.0
